STARLINK-33544          
1 62281U 24237Q   25309.74593470  .00027868  00000+0  10178-2 0  9994
2 62281  43.0038 196.5674 0001471 272.5151  87.5532 15.27600552 52238
STARLINK-33560          
1 62282U 24237R   25309.79334759  .00030677  00000+0  11195-2 0  9995
2 62282  42.9953 196.0584 0000440 334.7843  25.2987 15.27585358 52152
STARLINK-33547          
1 62283U 24237S   25309.68827138  .00027308  00000+0  99777-3 0  9992
2 62283  42.9987 185.7413 0001830 282.0922  77.9724 15.27593217 52351
STARLINK-33563          
1 62284U 24237T   25309.73436486  .00023744  00000+0  86919-3 0  9995
2 62284  42.9983 196.4743 0000898 266.4809  93.5940 15.27595069 52234
STARLINK-33550          
1 62285U 24237U   25309.72408552  .00039972  00000+0  14522-2 0  9998
2 62285  42.9989 196.3966 0001257 269.2536  90.8171 15.27626397 52230
STARLINK-33564          
1 62286U 24237V   25309.67283271  .00035570  00000+0  12948-2 0  9992
2 62286  42.9981 196.8786 0000223 301.7667  58.3163 15.27607390 52228
STARLINK-33546          
1 62287U 24237W   25309.73050817  .00043171  00000+0  15676-2 0  9995
2 62287  43.0015 196.4450 0002606 279.3163  80.7394 15.27610682 52145
STARLINK-33565          
1 62288U 24237X   25310.00003472  .00033960  00000+0  12390-2 0  9998
2 62288  43.0021 183.5976 0001409 272.7399 166.5220 15.27552792  5776
STARLINK-33549          
1 62289U 24237Y   25309.74207617  .00025161  00000+0  92053-3 0  9994
2 62289  43.0005 196.5375 0000940 247.4116 112.6636 15.27587194 52231
STARLINK-32648          
1 62301U 24239A   25309.60727963  .00021281  00000+0  72823-3 0  9999
2 62301  53.1604  37.6839 0001531  72.2252 287.8915 15.30214681 50566
STARLINK-32594          
1 62302U 24239B   25309.66098431  .00040184  00000+0  13605-2 0  9992
2 62302  53.1620  47.8055 0000680 111.4727 248.6347 15.30224661 50423
STARLINK-32621          
1 62303U 24239C   25309.63776998  .00030313  00000+0  10308-2 0  9991
2 62303  53.1610  37.1641 0001243  73.9258 286.1880 15.30219544 50572
STARLINK-32597          
1 62304U 24239D   25309.66309542  .00039961  00000+0  13533-2 0  9993
2 62304  53.1604  37.3235 0001264  75.1150 284.9991 15.30220422 50571
STARLINK-32649          
1 62305U 24239E   25309.68570434  .00035887  00000+0  12156-2 0  9999
2 62305  53.1613  49.5350 0001502  87.1244 272.9929 15.30260614 50404
STARLINK-32633          
1 62306U 24239F   25309.64993043  .00033839  00000+0  11490-2 0  9996
2 62306  53.1593  50.0172 0001260  80.8121 279.3023 15.30212976 50398
STARLINK-32646          
1 62307U 24239G   25309.63355065  .00030331  00000+0  10313-2 0  9999
2 62307  53.1618  37.1369 0001853  59.7131 300.4053 15.30221418 50575
STARLINK-32706          
1 62308U 24239H   25309.67947739  .00036779  00000+0  12468-2 0  9994
2 62308  53.1619  50.2010 0001103  90.2567 269.8560 15.30224138 50390
STARLINK-32678          
1 62309U 24239J   25309.66837204  .00047639  00000+0  16091-2 0  9992
2 62309  53.1600  37.3524 0001123  86.4171 273.6958 15.30222649 50576
STARLINK-32696          
1 62310U 24239K   25309.67631182  .00031014  00000+0  10542-2 0  9997
2 62310  53.1617  50.1837 0001200  87.9124 272.2014 15.30219727 50397
STARLINK-32700          
1 62311U 24239L   25309.66520520  .00029893  00000+0  10166-2 0  9994
2 62311  53.1600  37.3346 0001224  73.1992 286.9143 15.30222713 50561
STARLINK-32698          
1 62312U 24239M   25309.68265969  .00043123  00000+0  14586-2 0  9992
2 62312  53.1602  50.2203 0001429  62.3410 297.7736 15.30223917 50398
STARLINK-32634          
1 62313U 24239N   25309.63671294  .00041105  00000+0  13912-2 0  9990
2 62313  53.1619  37.1563 0001020  94.9485 265.1632 15.30226131 50575
STARLINK-32651          
1 62314U 24239P   25309.64781778  .00039765  00000+0  13465-2 0  9993
2 62314  53.1601  50.0008 0000691  78.4698 281.6380 15.30224326 50398
STARLINK-32627          
1 62315U 24239Q   25309.68054544  .00051422  00000+0  17343-2 0  9995
2 62315  53.1608  50.1606 0001876  83.9568 276.1646 15.30237585 50399
STARLINK-32596          
1 62316U 24239R   25309.67314736  .00028731  00000+0  97793-3 0  9992
2 62316  53.1648  50.1619 0001179  84.6962 275.4173 15.30216704 50397
STARLINK-32519          
1 62317U 24239S   25309.62616151  .00033455  00000+0  11358-2 0  9995
2 62317  53.1601  37.0880 0001461  83.0278 277.0889 15.30221640 50575
STARLINK-32527          
1 62319U 24239U   25309.68936441  .00018974  00000+0  65085-3 0  9996
2 62319  53.1608  36.7672 0001269  88.9304 271.1842 15.30213412 50582
STARLINK-32481          
1 62320U 24239V   25309.63038042  .00042361  00000+0  14343-2 0  9990
2 62320  53.1603  37.1176 0001327  91.3485 268.7668 15.30197711 50576
STARLINK-32645          
1 62321U 24239W   25309.63460296  .00028197  00000+0  95994-3 0  9994
2 62321  53.1615  37.1427 0001324  75.2868 284.8279 15.30219620 50573
STARLINK-32654          
1 62322U 24239X   25309.70891291  .00033004  00000+0  11207-2 0  9993
2 62322  53.1593  49.6708 0001064  63.4324 296.6785 15.30222827 50404
STARLINK-11444 [DTC]    
1 62409U 24249A   25309.80755340  .00232750  00000+0  17672-2 0  9996
2 62409  42.9995 194.6962 0001515 254.8128 105.2572 15.70837341 49992
STARLINK-11493 [DTC]    
1 62410U 24249B   25309.81286276  .00018736  00000+0  14871-3 0  9991
2 62410  42.9998 194.7395 0001994 265.6252  94.4388 15.70915288 49998
STARLINK-11453 [DTC]    
1 62411U 24249C   25310.09892325  .00338459  00000+0  25243-2 0  9993
2 62411  43.0006 192.5645 0002009 295.5095  64.5565 15.70943490 50049
STARLINK-11462 [DTC]    
1 62412U 24249D   25309.72273155  .00281343  00000+0  21141-2 0  9998
2 62412  42.9986 194.9057 0001301 234.6031 125.4715 15.70936256 49983
STARLINK-11441 [DTC]    
1 62413U 24249E   25309.70149192  .00121508  00000+0  93375-3 0  9995
2 62413  43.0002 194.7346 0002681 276.1246  83.9316 15.70912029 49982
STARLINK-11445 [DTC]    
1 62414U 24249F   25309.71211378  .00304044  00000+0  22628-2 0  9993
2 62414  42.9994 194.8194 0002291 251.9986 108.0632 15.71097369 49984
STARLINK-11355 [DTC]    
1 62415U 24249G   25309.70240559  .00246614  00000+0  18620-2 0  9991
2 62415  42.9988 194.7338 0000699 234.7245 125.3557 15.70928709 49982
STARLINK-11446 [DTC]    
1 62416U 24249H   25309.69087699  .00270535  00000+0  20272-2 0  9999
2 62416  42.9996 194.6492 0004825 285.8155  74.2181 15.71028266 49989
STARLINK-11428 [DTC]    
1 62417U 24249J   25309.73335137  .00354674  00000+0  26395-2 0  9997
2 62417  42.9997 194.9979 0001717 257.0449 103.0227 15.70946648 49982
STARLINK-11447 [DTC]    
1 62418U 24249K   25309.69618706  .00230985  00000+0  17413-2 0  9998
2 62418  42.9997 194.6893 0004942 290.0047  70.0288 15.71004601 49984
STARLINK-11439 [DTC]    
1 62419U 24249L   25309.70680267  .00237307  00000+0  17944-2 0  9996
2 62419  42.9990 194.7760 0001233 257.8411 102.2319 15.70922546 49987
STARLINK-11434 [DTC]    
1 62420U 24249M   25310.33335648 -.00100858  00000+0 -79089-3 0  9990
2 62420  43.0000 191.4461 0001493 271.6203 215.5249 15.70875194  5793
STARLINK-11461 [DTC]    
1 62421U 24249N   25309.60087708  .00358060  00000+0  26700-2 0  9999
2 62421  43.0000 195.7115 0001785 270.6925  89.3738 15.70888794 49968
STARLINK-32692          
1 62422U 24249P   25309.99304746  .00050308  00000+0  18234-2 0  9993
2 62422  43.0003 300.6098 0001684 272.8859  87.1800 15.27613382 48806
STARLINK-32680          
1 62423U 24249Q   25309.66436710  .00026762  00000+0  97806-3 0  9995
2 62423  43.0013 294.6672 0001636 270.7206  89.3458 15.27595386 48848
STARLINK-32638          
1 62424U 24249R   25310.26824176  .00043261  00000+0  15700-2 0  9996
2 62424  43.0012 302.7228 0000544 232.9936 127.0866 15.27629615 48805
STARLINK-32283          
1 62425U 24249S   25310.23276545  .00036457  00000+0  13262-2 0  9995
2 62425  43.0007 287.7291 0000605 198.0218 162.0612 15.27621560 48972
STARLINK-32676          
1 62426U 24249T   25309.95032875  .00030716  00000+0  11193-2 0  9992
2 62426  42.9941 293.3797 0003167  90.7302 269.3912 15.27630785 48883
STARLINK-32659          
1 62427U 24249U   25310.00157562  .00048822  00000+0  17706-2 0  9995
2 62427  43.0037 292.9029 0001755 258.7294 101.3360 15.27604683 48893
STARLINK-32614          
1 62428U 24249V   25310.25072951  .00043969  00000+0  15952-2 0  9999
2 62428  43.0023 299.1185 0001263 266.1166  93.9541 15.27634326 48845
STARLINK-32418          
1 62429U 24249W   25310.23613676  .00047871  00000+0  17356-2 0  9999
2 62429  43.0019 291.2185 0001078 266.7721  93.3008 15.27623151 48937
STARLINK-32702          
1 62432U 24251A   25309.68920678  .00045487  00000+0  15370-2 0  9991
2 62432  53.1558 188.4161 0000685  80.6569 279.4509 15.30233608 49008
STARLINK-32712          
1 62433U 24251B   25309.96377232  .00029894  00000+0  10172-2 0  9994
2 62433  53.1574 190.1251 0001369  86.0253 274.0904 15.30205952 49008
STARLINK-32674          
1 62434U 24251C   25309.99109591  .00018532  00000+0  63610-3 0  9992
2 62434  53.1607 189.5880 0001185 126.7186 233.3923 15.30208839 49016
STARLINK-32711          
1 62435U 24251D   25309.69934560  .00038973  00000+0  13198-2 0  9998
2 62435  53.1569 191.3188 0001603  96.7472 263.3711 15.30231829 48961
STARLINK-32697          
1 62436U 24251E   25309.68667579  .00020630  00000+0  70605-3 0  9999
2 62436  53.1592 191.2425 0001555  83.6525 276.4653 15.30231294 48967
STARLINK-32693          
1 62437U 24251F   25309.97156268  .00042081  00000+0  14249-2 0  9995
2 62437  53.1579 187.2632 0001199  83.8170 276.2967 15.30199435 49046
STARLINK-32721          
1 62438U 24251G   25310.13649828  .00037106  00000+0  12581-2 0  9994
2 62438  53.1581 189.0668 0001623  86.1997 273.9189 15.30215855 48970
STARLINK-32709          
1 62439U 24251H   25309.98067468  .00013470  00000+0  46629-3 0  9999
2 62439  53.1593 190.2353 0001361 100.9145 259.2009 15.30184853 49004
